OBJECT_NAME,OBJECT_ID,EPOCH,MEAN_MOTION,ECCENTRICITY,INCLINATION,RA_OF_ASC_NODE,ARG_OF_PERICENTER,MEAN_ANOMALY,EPHEMERIS_TYPE,CLASSIFICATION_TYPE,NORAD_CAT_ID,ELEMENT_SET_NO,REV_AT_EPOCH,BSTAR,MEAN_MOTION_DOT,MEAN_MOTION_DDOT
ONEWEB-0721,2023-068R,2026-07-23T03:41:12.958944,13.22471888,.00017291,86.6737,74.0323,82.2565,277.8764,0,U,56725,999,16269,.8044008E-4,.48E-6,0
ONEWEB-0015,2024-188A,2026-07-22T00:35:16.196064,13.11414931,.00013566,87.8886,14.1549,81.3582,278.7700,0,U,61594,999,8902,-.54887423E-4,-.7E-7,0
ONEWEB-0687,2024-188B,2026-07-23T03:33:57.946176,13.17647965,.00017287,87.9149,358.7217,78.6470,281.4856,0,U,61595,999,9063,.19330796E-4,.2E-6,0
ONEWEB-0688,2024-188C,2026-07-22T20:57:52.275744,13.17647434,.0000744,87.9150,358.7763,66.3795,293.7415,0,U,61596,999,9059,-.18962368E-4,.6E-7,0
ONEWEB-0689,2024-188D,2026-07-23T04:52:05.902176,13.11418847,.00019803,87.8902,13.8834,84.4978,275.6376,0,U,61597,999,8917,-.91431289E-3,-.311E-5,0
ONEWEB-0690,2024-188E,2026-07-22T21:47:17.998080,13.11418991,.00018195,87.8900,13.9524,112.6153,247.5168,0,U,61598,999,8931,.3921029E-3,.152E-5,0
ONEWEB-0691,2024-188F,2026-07-22T21:39:58.565088,13.11418516,.00015417,87.8911,13.8657,83.1767,276.9537,0,U,61599,999,8916,-.16442642E-3,-.46E-6,0
ONEWEB-0692,2024-188G,2026-07-23T05:28:43.873248,13.11418539,.00026064,87.8891,13.9073,90.0756,270.0671,0,U,61600,999,8919,.16788906E-2,.608E-5,0
ONEWEB-0693,2024-188H,2026-07-23T04:32:17.300832,13.17647824,.0001759,87.9147,358.7317,121.4339,238.6965,0,U,61601,999,9062,-.72315026E-4,-.15E-6,0
ONEWEB-0695,2024-188J,2026-07-23T04:54:33.113088,13.11418701,.000228,87.8888,13.9041,84.5638,275.5750,0,U,61602,999,8918,-.89820503E-3,-.306E-5,0
ONEWEB-0697,2024-188K,2026-07-23T00:11:21.160320,13.11416051,.00025697,87.8892,13.9336,93.1106,267.0316,0,U,61603,999,8914,.14158584E-2,.515E-5,0
ONEWEB-0698,2024-188L,2026-07-23T05:09:11.865024,13.11426529,.00027411,87.8883,13.9059,111.5980,248.5440,0,U,61604,999,8919,.25221589E-2,.907E-5,0
ONEWEB-0699,2024-188M,2026-07-23T00:38:46.010688,13.10376694,.00024675,87.8823,29.1228,92.9845,267.1564,0,U,61605,999,8800,.56656881E-3,.21E-5,0
ONEWEB-0700,2024-188N,2026-07-23T00:41:13.860960,13.10375247,.00023846,87.8840,29.0374,91.8334,268.3067,0,U,61606,999,8799,.76773165E-3,.281E-5,0
ONEWEB-0701,2024-188P,2026-07-23T01:05:39.967872,13.10372038,.00026243,87.8823,29.1194,94.7029,265.4398,0,U,61607,999,8800,.18597818E-2,.662E-5,0
ONEWEB-0702,2024-188Q,2026-07-23T00:45:31.518720,13.11415234,.00028609,87.8906,13.8550,87.4545,272.6911,0,U,61608,999,8918,-.12695176E-2,-.437E-5,0
ONEWEB-0704,2024-188R,2026-07-23T06:18:24.719040,13.10374342,.00028229,87.8827,29.0666,82.8063,277.3386,0,U,61609,999,8801,.1249542E-2,.449E-5,0
ONEWEB-0705,2024-188S,2026-07-23T00:55:53.463072,13.10373446,.0002492,87.8828,29.1172,67.9113,292.2279,0,U,61610,999,8015,.17398729E-2,.62E-5,0
ONEWEB-0706,2024-188T,2026-07-23T06:03:43.223040,13.10416664,.00021887,87.8827,29.0779,88.2763,271.8616,0,U,61611,999,8810,-.2401923E-1,-.837E-4,0
ONEWEB-0707,2024-188U,2026-07-23T06:13:31.039392,13.10374426,.00023438,87.8828,29.0721,82.8247,277.3147,0,U,61612,999,8804,.8952265E-3,.325E-5,0
ONEWEB-0708,2024-188V,2026-07-23T01:10:32.361888,13.10370354,.00017865,87.8818,29.1293,72.9120,287.2203,0,U,61613,999,8799,.17530784E-2,.625E-5,0
