ONEWEB-0721             
1 56725U 23068R   26204.15362221  .00000048  00000+0  80440-4 0  9991
2 56725  86.6737  74.0323 0001729  82.2565 277.8764 13.22471888162699
ONEWEB-0015             
1 61594U 24188A   26203.02449301 -.00000007  00000+0 -54887-4 0  9998
2 61594  87.8886  14.1549 0001356  81.3582 278.7700 13.11414931 89026
ONEWEB-0687             
1 61595U 24188B   26204.14858734  .00000020  00000+0  19331-4 0  9995
2 61595  87.9149 358.7217 0001728  78.6470 281.4856 13.17647965 90630
ONEWEB-0688             
1 61596U 24188C   26203.87352171  .00000006  00000+0 -18962-4 0  9993
2 61596  87.9150 358.7763 0000744  66.3795 293.7415 13.17647434 90593
ONEWEB-0689             
1 61597U 24188D   26204.20284609 -.00000311  00000+0 -91431-3 0  9993
2 61597  87.8902  13.8834 0001980  84.4978 275.6376 13.11418847 89178
ONEWEB-0690             
1 61598U 24188E   26203.90784720  .00000152  00000+0  39210-3 0  9997
2 61598  87.8900  13.9524 0001819 112.6153 247.5168 13.11418991 89317
ONEWEB-0691             
1 61599U 24188F   26203.90276117 -.00000046  00000+0 -16443-3 0  9991
2 61599  87.8911  13.8657 0001541  83.1767 276.9537 13.11418516 89163
ONEWEB-0692             
1 61600U 24188G   26204.22828557  .00000608  00000+0  16789-2 0  9995
2 61600  87.8891  13.9073 0002606  90.0756 270.0671 13.11418539 89196
ONEWEB-0693             
1 61601U 24188H   26204.18908913 -.00000015  00000+0 -72315-4 0  9999
2 61601  87.9147 358.7317 0001759 121.4339 238.6965 13.17647824 90620
ONEWEB-0695             
1 61602U 24188J   26204.20454992 -.00000306  00000+0 -89821-3 0  9998
2 61602  87.8888  13.9041 0002280  84.5638 275.5750 13.11418701 89182
ONEWEB-0697             
1 61603U 24188K   26204.00788380  .00000515  00000+0  14159-2 0  9999
2 61603  87.8892  13.9336 0002569  93.1106 267.0316 13.11416051 89147
ONEWEB-0698             
1 61604U 24188L   26204.21472066  .00000907  00000+0  25222-2 0  9992
2 61604  87.8883  13.9059 0002741 111.5980 248.5440 13.11426529 89195
ONEWEB-0699             
1 61605U 24188M   26204.02692142  .00000210  00000+0  56657-3 0  9995
2 61605  87.8823  29.1228 0002467  92.9845 267.1564 13.10376694 88003
ONEWEB-0700             
1 61606U 24188N   26204.02863265  .00000281  00000+0  76773-3 0  9991
2 61606  87.8840  29.0374 0002384  91.8334 268.3067 13.10375247 87994
ONEWEB-0701             
1 61607U 24188P   26204.04560148  .00000662  00000+0  18598-2 0  9991
2 61607  87.8823  29.1194 0002624  94.7029 265.4398 13.10372038 88000
ONEWEB-0702             
1 61608U 24188Q   26204.03161480 -.00000437  00000+0 -12695-2 0  9991
2 61608  87.8906  13.8550 0002860  87.4545 272.6911 13.11415234 89181
ONEWEB-0704             
1 61609U 24188R   26204.26278610  .00000449  00000+0  12495-2 0  9990
2 61609  87.8827  29.0666 0002822  82.8063 277.3386 13.10374342 88015
ONEWEB-0705             
1 61610U 24188S   26204.03881323  .00000620  00000+0  17399-2 0  9997
2 61610  87.8828  29.1172 0002492  67.9113 292.2279 13.10373446 80152
ONEWEB-0706             
1 61611U 24188T   26204.25258360 -.00008370  00000+0 -24019-1 0  9999
2 61611  87.8827  29.0779 0002188  88.2763 271.8616 13.10416664 88104
ONEWEB-0707             
1 61612U 24188U   26204.25938703  .00000325  00000+0  89523-3 0  9999
2 61612  87.8828  29.0721 0002343  82.8247 277.3147 13.10374426 88045
ONEWEB-0708             
1 61613U 24188V   26204.04898567  .00000625  00000+0  17531-2 0  9992
2 61613  87.8818  29.1293 0001786  72.9120 287.2203 13.10370354 87992
